{"type": "FeatureCollection", "features": [ {"type": "Feature", "properties": {"norad_id": 64902, "name": "CO3D 2", "group": "resource", "lat": -42.69892924875056, "lon": -110.37494578782047, "alt_km": 512.455051461593, "timestamp": "2025-12-26T11:25:44.877345+00:00", "meta": {"OBJECT_NAME": "CO3D 2", "OBJECT_ID": "2025-156D", "EPOCH": "2025-12-26T04:07:54.916032", "MEAN_MOTION": 15.20197422, "ECCENTRICITY": 7.86e-05, "INCLINATION": 97.434, "RA_OF_ASC_NODE": 76.2454, "ARG_OF_PERICENTER": 60.3399, "MEAN_ANOMALY": 299.7915, "EPHEMERIS_TYPE": 0, "CLASSIFICATION_TYPE": "U", "NORAD_CAT_ID": 64902, "ELEMENT_SET_NO": 999, "REV_AT_EPOCH": 2324, "BSTAR": 0.00013911, "MEAN_MOTION_DOT": 2.945e-05, "MEAN_MOTION_DDOT": 0}, "tle": {"line1": "1 64902U 25156D   25360.17216338  .00002945  00000+0  13911-3 0  9994", "line2": "2 64902  97.4340  76.2454 0000786  60.3399 299.7915 15.20197422 23245"}}, "geometry": {"type": "Point", "coordinates": [-110.37494578782047, -42.69892924875056]}}, {"type": "Feature", "properties": {"norad_id": 64903, "name": "CO3D 1", "group": "resource", "lat": -41.89993894581316, "lon": -110.18284197601653, "alt_km": 512.38434162266, "timestamp": "2025-12-26T11:25:44.877355+00:00", "meta": {"OBJECT_NAME": "CO3D 1", "OBJECT_ID": "2025-156E", "EPOCH": "2025-12-26T04:08:07.983168", "MEAN_MOTION": 15.20206353, "ECCENTRICITY": 8.55e-05, "INCLINATION": 97.4338, "RA_OF_ASC_NODE": 76.2454, "ARG_OF_PERICENTER": 72.3435, "MEAN_ANOMALY": 287.7893, "EPHEMERIS_TYPE": 0, "CLASSIFICATION_TYPE": "U", "NORAD_CAT_ID": 64903, "ELEMENT_SET_NO": 999, "REV_AT_EPOCH": 2324, "BSTAR": 0.00028593, "MEAN_MOTION_DOT": 6.128e-05, "MEAN_MOTION_DDOT": 0}, "tle": {"line1": "1 64903U 25156E   25360.17231462  .00006128  00000+0  28593-3 0  9999", "line2": "2 64903  97.4338  76.2454 0000855  72.3435 287.7893 15.20206353 23240"}}, "geometry": {"type": "Point", "coordinates": [-110.18284197601653, -41.89993894581316]}}, {"type": "Feature", "properties": {"norad_id": 66514, "name": "SENTINEL-6B", "group": "resource", "lat": 61.944086356455195, "lon": -169.55520494228068, "alt_km": 1336.7234890020154, "timestamp": "2025-12-26T11:25:44.877364+00:00", "meta": {"OBJECT_NAME": "SENTINEL-6B", "OBJECT_ID": "2025-264A", "EPOCH": "2025-12-25T18:10:28.373376", "MEAN_MOTION": 12.80929561, "ECCENTRICITY": 0.00079022, "INCLINATION": 66.0399, "RA_OF_ASC_NODE": 135.3964, "ARG_OF_PERICENTER": 269.9783, "MEAN_ANOMALY": 90.0326, "EPHEMERIS_TYPE": 0, "CLASSIFICATION_TYPE": "U", "NORAD_CAT_ID": 66514, "ELEMENT_SET_NO": 999, "REV_AT_EPOCH": 495, "BSTAR": 6.3134768e-05, "MEAN_MOTION_DOT": -4.6e-07, "MEAN_MOTION_DDOT": 0}, "tle": {"line1": "1 66514U 25264A   25359.75727284 -.00000046  00000+0  63135-4 0  9999", "line2": "2 66514  66.0399 135.3964 0007902 269.9783  90.0326 12.80929561  4951"}}, "geometry": {"type": "Point", "coordinates": [-169.55520494228068, 61.944086356455195]}}]}